{"type": "FeatureCollection", "features": [{"type": "Feature", "geometry": {"type": "Polygon", "coordinates": [[[122.54748690369877, -3.9417579293841136], [122.54856970183125, -3.9418822912339095], [122.55352172514861, -3.941539281711613], [122.55544202323192, -3.941473123085391], [122.55707848718347, -3.9414167418883466], [122.55795652137735, -3.9413325275732696], [122.55830700156801, -3.941314005136441], [122.56061225175509, -3.94097304516907], [122.56320417883092, -3.9406086308828563], [122.56579100495196, -3.940331517384841], [122.56694592331681, -3.9402300360864544], [122.569350358833, -3.9401252407863723], [122.57103219088405, -3.939867439330012], [122.57380618031209, -3.939897429921622], [122.57534511278776, -3.939898536087714], [122.57705358725437, -3.9397462107182406], [122.57923491805809, -3.9395941245683446], [122.5807377688341, -3.9396003002128737], [122.58067994962103, -3.9410460269517316], [122.58050098633248, -3.943655400875244], [122.58036697115983, -3.945194250613369], [122.58032199696365, -3.946309383870126], [122.58018810409885, -3.9476028967554626], [122.58009875105753, -3.9486510988683037], [122.58008742589504, -3.949086004714573], [122.57977557158644, -3.950981611911029], [122.5795527582543, -3.9524535053241365], [122.57939636075454, -3.9543268866756947], [122.57935166804609, -3.9548844429619017], [122.57919819604102, -3.956459521888654], [122.57921481101575, -3.9571234131142035], [122.57922540682816, -3.9575468130342166], [122.57919707008978, -3.958689834267613], [122.579181778917, -3.9588578168339588], [122.57914124107654, -3.9593031413260853], [122.57904350005859, -3.9604600651790705], [122.57898197204142, -3.9613633100679095], [122.57898165098348, -3.9619982449222917], [122.57895920120723, -3.9624784541165674], [122.5789590483225, -3.9627799743155094], [122.57895898716858, -3.962902212865991], [122.57880328484474, -3.9633928020353686], [122.57866989200299, -3.9636826751145975], [122.57873634560694, -3.964017255291317], [122.57878493507779, -3.964132035763999], [122.57891174578151, -3.9644315972396242], [122.57969013689139, -3.9662703546923233], [122.57887813631802, -3.965832839013526], [122.57886149526291, -3.965976646903922], [122.57883301013639, -3.9660908248308573], [122.57874054723959, -3.9662477907021803], [122.57869073559002, -3.9663762318767652], [122.5787048990129, -3.966476158247321], [122.57874749360306, -3.9665618231687887], [122.5787474162613, -3.9667188367041177], [122.57884682372301, -3.9668759024001226], [122.57901167664863, -3.9670543782561722], [122.57932994222413, -3.9671188056874733], [122.57964262660697, -3.9671189657668897], [122.57998368010388, -3.9672333307528156], [122.58022524969655, -3.9673333731358156], [122.58021087223503, -3.967661666152143], [122.58023864959509, -3.9677594944043086], [122.58026762305347, -3.967861533282278], [122.58036702601854, -3.9680328703199024], [122.58053753208256, -3.968132874032147], [122.58080755622481, -3.968175832847585], [122.58092381518308, -3.968203370088606], [122.58104780561283, -3.968232733852826], [122.58130497484585, -3.9682474566540265], [122.58148384910143, -3.968358131721537], [122.58158916331035, -3.968390340940651], [122.58172660669857, -3.9683817838913598], [122.58181657577538, -3.968376182014353], [122.58197293370492, -3.9683477139749606], [122.58211503378286, -3.9684048820789], [122.58221444664044, -3.9685619468755355], [122.58242761204576, -3.9686191500529304], [122.58241329214086, -3.968833251652402], [122.58238934679196, -3.9689232486082453], [122.58235633178035, -3.9690473343661807], [122.58234204784836, -3.9691900657680783], [122.5823135348428, -3.9693613389538456], [122.58232766229284, -3.969532634622606], [122.5823133990452, -3.9696325457045916], [122.58225645397326, -3.9698180803393583], [122.58265432483822, -3.9700038434018907], [122.58273951581702, -3.970175173244826], [122.58279623336057, -3.970446408773885], [122.58241246026789, -3.970489034840295], [122.58192921226441, -3.970503065163509], [122.58125123855487, -3.9705169048305216], [122.58150268270367, -3.9707740542783903], [122.58162670820704, -3.9708987362868413], [122.58138866305741, -3.9714020517624498], [122.58128093506821, -3.97146384867688], [122.58090717142986, -3.9716846718093706], [122.58062114834847, -3.971703676282832], [122.58031606413608, -3.971703519800805], [122.58001101140005, -3.971645917324416], [122.57964824826912, -3.971597505919398], [122.57959101901145, -3.972641474023984], [122.57915237378401, -3.9728135961696758], [122.5786757798644, -3.9726218571121557], [122.57806565370804, -3.972544947090782], [122.57787476271116, -3.9729661382758223], [122.57748761176492, -3.9729289063431743], [122.5774742739197, -3.9730999771813806], [122.57694293107247, -3.9730520559068765], [122.57641275104868, -3.973004241651566], [122.57629182191113, -3.9735972546087943], [122.57598677906769, -3.9735205001701672], [122.57602526735332, -3.972831141043496], [122.57577740700276, -3.9727927139117973], [122.5756616300812, -3.9726264265674587], [122.57549161684571, -3.972352129746202], [122.57535833911712, -3.971969071614499], [122.57524407125804, -3.9717009198607194], [122.5748629331789, -3.971279437295337], [122.5747676248271, -3.9712219391403885], [122.57434816483708, -3.9711642728121426], [122.57410273715269, -3.971164147806359], [122.57392838378894, -3.971738541199919], [122.57362337961635, -3.9715851879053226], [122.57347084920139, -3.971565958601307], [122.57333743477592, -3.9714509928681956], [122.57303234157038, -3.971469984751195], [122.5728607239444, -3.9714890449826328], [122.57280343173404, -3.971661358683985], [122.5723076049131, -3.9717951490260788], [122.57171662712179, -3.971565046688717], [122.57186643798684, -3.970683500642245], [122.57123637296127, -3.970534268041213], [122.57045201484974, -3.970402942740801], [122.56961684774039, -3.9702642412009475], [122.56861889794479, -3.9700984997451876], [122.568254560101, -3.970032177442249], [122.56703643918138, -3.9698104298067065], [122.56621661180829, -3.969656804017461], [122.56600459213927, -3.969597401098344], [122.56567509043415, -3.969589298206742], [122.56548705658352, -3.9696835939218893], [122.56547286708017, -3.969858217981546], [122.56559504267817, -3.9698818809432694], [122.56558085407428, -3.970056505002926], [122.56539756234875, -3.9700705668023843], [122.56526125930078, -3.970098813608523], [122.56494172837915, -3.9700184088216943], [122.56490892470826, -3.969839040838206], [122.56453296222756, -3.9698294028039243], [122.56425818786616, -3.9695389919300865], [122.56405716061052, -3.969179016697442], [122.56284644920535, -3.9686108097402233], [122.56211083075128, -3.968080653998161], [122.56178474557065, -3.9678456449597093], [122.56069689324802, -3.9676539157947204], [122.56007661374576, -3.9675308732503893], [122.55770355377706, -3.9671048239277233], [122.55758423802317, -3.9670669489797454], [122.55634441466407, -3.966909512762971], [122.55516491602904, -3.9669411419193317], [122.55481591702201, -3.9673189039434824], [122.55446733799833, -3.9669131109504967], [122.55149806798252, -3.966750180775456], [122.5512039905727, -3.9671025612334248], [122.55100226094673, -3.9670264588032005], [122.5506625186614, -3.9672567320117906], [122.55031365275394, -3.9673855976663823], [122.54995573427084, -3.967284001254832], [122.5497262857406, -3.967237785994236], [122.54951511772963, -3.9673390712403815], [122.54947829768643, -3.9675326341229926], [122.54885408634809, -3.96762447558827], [122.54818424520784, -3.967227722580489], [122.54818439989121, -3.966941955805801], [122.54798436278922, -3.9666036641269535], [122.54626269526833, -3.966431413378178], [122.54468097215023, -3.966257416146089], [122.54409616190947, -3.9661870477931664], [122.54241667888766, -3.9661464532953588], [122.54226816214705, -3.966142863201714], [122.54166051632077, -3.9661125596460494], [122.54054267970196, -3.9660568133704537], [122.54031120320053, -3.9661106440901577], [122.53957289487423, -3.966202115034754], [122.53862688902075, -3.9663193173817817], [122.53835796834667, -3.966359804860307], [122.53777541990074, -3.9664475130414694], [122.53735081668788, -3.966531114018899], [122.53703966474981, -3.9665923767360205], [122.53636583241827, -3.966865947804397], [122.53616034992129, -3.9669997246567483], [122.53605939832373, -3.9671393120288094], [122.53554588273732, -3.9673860707097646], [122.5348929272678, -3.9676923501211085], [122.53460932785921, -3.967832966317573], [122.53429954109197, -3.9679868798897715], [122.53382613167176, -3.968236348228025], [122.53381534610244, -3.9683974590746445], [122.5334515190734, -3.968730234312055], [122.5330557148504, -3.968864274665716], [122.5326812713247, -3.9690574058738086], [122.53241649472646, -3.9691727241410995], [122.53146445442209, -3.9694460856674922], [122.5313211843263, -3.9695229902929157], [122.5310846536349, -3.9696499529821665], [122.53038219228537, -3.9698773672458536], [122.53000954470573, -3.9700467680431544], [122.53015631136581, -3.9705704882365893], [122.53007597492743, -3.9707852670256543], [122.53008118739797, -3.971024262758725], [122.53017997882394, -3.971271368577998], [122.53022800531926, -3.971453996603856], [122.5302546738152, -3.9715775373726707], [122.53037239776907, -3.971443337838963], [122.53058108724846, -3.9712178903924737], [122.53083789405468, -3.9710085821795786], [122.5310464648236, -3.970987218784348], [122.5311159158679, -3.971110782036156], [122.53123883700383, -3.9712451191661096], [122.53128154490842, -3.9713740378807465], [122.53125469474944, -3.971572735892213], [122.53120645961141, -3.971760680710055], [122.5313776005969, -3.971733924080521], [122.5314898422835, -3.971841401158958], [122.53154322514084, -3.972007921427643], [122.5316180046683, -3.9721637118849777], [122.53146538522037, -3.9725368837693935], [122.53131549611427, -3.972810701252037], [122.531203098845, -3.9729771270919905], [122.53106774727976, -3.9730910073433527], [122.53065472733485, -3.97310451066377], [122.53030851532671, -3.97289379411254], [122.53004439523372, -3.9725641332273725], [122.52986219618444, -3.9724175779080255], [122.52948850629058, -3.972444823768793], [122.52932669487208, -3.972246540344802], [122.52919706119647, -3.972087686796531], [122.52847733466228, -3.971593006611183], [122.52779402887246, -3.971162421108019], [122.52731572444227, -3.9708463651668673], [122.5270881411059, -3.9703794263685737], [122.52665113804062, -3.969555397362921], [122.52633250913905, -3.9689236497058893], [122.52624379911315, -3.968823477820436], [122.52603649458965, -3.9685893932850362], [122.52579965273284, -3.9683787360889937], [122.52554454024936, -3.9682412909020286], [122.52517098165649, -3.9680397078653655], [122.52494320316737, -3.9679205872645156], [122.52470534058014, -3.967739007848124], [122.52446945919931, -3.967599955572652], [122.5240594780636, -3.9673434320528926], [122.52346727629481, -3.9669861188135407], [122.52295705312656, -3.9667112320369107], [122.52232838474823, -3.9663722038133713], [122.52220311728118, -3.966318200423789], [122.52245169978721, -3.9658917383122976], [122.5227044443557, -3.9653617858168992], [122.52275282158654, -3.965260348585396], [122.52331875595692, -3.9641982051822104], [122.52346493086297, -3.9638025340588783], [122.5235010539316, -3.963704756168738], [122.52399842398918, -3.9625471749114], [122.52414376072701, -3.9621010329355038], [122.52386209576011, -3.962014694421743], [122.52350173741624, -3.961907424187448], [122.52357171726207, -3.9617254760491143], [122.52361881565685, -3.9615367281367035], [122.52365917543167, -3.9613951703500554], [122.52378532873104, -3.9610010352687723], [122.52390124684614, -3.9606941470164507], [122.52393837805482, -3.9605016120589625], [122.52396863934234, -3.960235732891924], [122.52399567296303, -3.9599188765540454], [122.52400194303627, -3.959559512860398], [122.52404697478917, -3.9591732747260338], [122.5240627848707, -3.9590842427428257], [122.52411021511548, -3.958947522409371], [122.52411026997402, -3.9588520899511686], [122.52412396305161, -3.9586482262337945], [122.52434269795825, -3.9576369251032233], [122.52442543738502, -3.9565123273811658], [122.52455533726005, -3.9555706391728656], [122.52453960631888, -3.953726705222447], [122.52442939080484, -3.952759172297114], [122.52330149616822, -3.952954039196797], [122.52259661923956, -3.952973857556728], [122.52228934427889, -3.9529705588434254], [122.52123318136728, -3.95165724828259], [122.51955112718386, -3.949658450176539], [122.51955127377337, -3.949402318761173], [122.52054693569357, -3.9475843644261026], [122.52058606519587, -3.9460604056623865], [122.52068826685118, -3.9457274946273806], [122.52112203595422, -3.945343547965539], [122.52124981432851, -3.944882586960972], [122.52153047924924, -3.944652230115551], [122.52153088844076, -3.943935063051949], [122.52165720002088, -3.9431367231804053], [122.52160836413577, -3.9422446415760852], [122.52183838643352, -3.9413739278636655], [122.52194054312258, -3.941117854904295], [122.52191555096294, -3.940221381910412], [122.52206867133319, -3.940042176704271], [122.52203150505105, -3.9381339789990903], [122.52218475582286, -3.9377242559688312], [122.52218519379278, -3.936955861722822], [122.52233834114261, -3.936725432931574], [122.52236432525444, -3.9358802149991305], [122.5224664810444, -3.93562414203976], [122.5225037327622, -3.934701988904841], [122.52245383567708, -3.9346268874200767], [122.52295771502759, -3.9347471321736087], [122.52697420689513, -3.936577016915031], [122.5334011552402, -3.9385743868976846], [122.53588223907512, -3.9391928893395693], [122.53846717032471, -3.9407223528534523], [122.53893425481303, -3.9411202300137376], [122.54113898687582, -3.9414057791525607], [122.54157291785693, -3.9414475265812747], [122.54336451396226, -3.941463041685232], [122.54384804974879, -3.941479911168109], [122.54516847574568, -3.9415366709797155], [122.54598263199397, -3.9415786252525713], [122.54613634771536, -3.94158015769732], [122.54686293158008, -3.941587407132328], [122.54696624209942, -3.941608217444468], [122.54748690369877, -3.9417579293841136]]]}, "properties": {"KECAMATAN": "KENDARI BARAT"}}]}